#dP2020  7 15  0  0  0.00000000      96 __u+U ITR00 FIT  IAC
## 2114 259200.00000000   900.00000000 59045 0.0000000000000
+  115   C06C07C08C09C10C11C12C13C14C16C19C20C21C22C23C24C25
+        C26C27C28C29C30C32C33C34C35C36C37C38C39C40C43C44C45
+        C46E01E02E03E04E05E07E08E09E11E12E13E14E15E18E19E21
+        E24E25E26E27E30E31E33E36G01G02G03G04G05G06G07G08G09
+        G10G11G12G13G14G15G16G17G18G19G20G21G22G24G25G26G27
+        G28G29G30G31G32J01J02J03R01R02R03R04R05R07R08R09R11
+        R12R13R14R15R16R17R18R19R20R21R23R24R26  0  0  0  0
++         8  8  9  7  8  7  7  0  6  8  8  7  6  7  7  6  7
++         6  7  7  9  6  7  7  7  7  7  8  5 13  5  8  7  7
++        11  5  5  4  7  7  6  6  6  6  6  6  6  6  6  6  4
++         7  6  6  5  5  5  6  5  6  5  5  6  5  5  6  4  5
++         5  5  6  5  5  6  7  6  5  6  6  5  5  5  5  6  6
++         5  4  6  6  5  9  5  5  7  5  7  6  6  6  6  5  5
++         7  6  5  6  6  7  6  6  7  6  6  6  6  0  0  0  0
%c M  cc GPS ccc cccc cccc cccc cccc ccccc ccccc ccccc ccccc
%c cc cc ccc ccc cccc cccc cccc cccc ccccc ccccc ccccc ccccc
%f  0.0000000  0.000000000  0.00000000000  0.000000000000000
%f  0.0000000  0.000000000  0.00000000000  0.000000000000000
%i    0    0    0    0      0      0      0      0         0
%i    0    0    0    0      0      0      0      0         0
/* INFORMATION & ANALYSIS CENTER (IAC)      ULTRA-RAPID DATA
/* S/V CLOCKS ARE ALIGNED TO GNSS TIME                      
/* G:C1WC2W R:C1PC2P E:C1XC5X C:C2IC6I J:C1CC2S             
/* PCV:IGS14_2113 OL/AL:FES2004  NONE     YN ORB:CoN CLK:CoN
*  2020 07 15  6 15  0.00000000
PC06 -23953.156312  27615.862059 -20985.351558    782.008664
PC07 -11542.531786  37756.643287 -13865.865220    -35.902730
PC08  -6791.160657  21167.806063  35947.373377   -376.039591
PC09  -9583.252138  27411.406464 -30434.411343    677.274107
PC10  -1963.659182  41800.604824  -2152.021233   -236.434501
PC11  11726.598072 -15511.186814 -19984.943344   -491.760121
PC12  25918.847985  -8788.896192  -5508.806812    432.467976
PC13   7633.545848  28419.390578  30385.365414 999999.999999
PC14   9335.517797 -26314.146150   -991.053213    670.600978
PC16 -21268.857301  28048.173869 -23275.441799   -599.922552
PC19  -2781.205292  26561.596219  -8027.270589    475.523629
PC20 -13937.125072  22386.714358   9094.415342   -839.553337
PC21  17225.518243  -4716.975304 -21429.106757   -659.722553
PC22  10254.916312  15360.175204 -20902.950643   -772.202455
PC23 -19417.499199 -19928.434596  -2188.814890   -844.504772
PC24  10695.992487 -12279.550972  22662.653168   -765.083594
PC25  -7217.386487 -22860.010638  14274.519349   -686.526454
PC26  21046.451997   4212.394228  17847.778338    755.217140
PC27 -27556.201143   2581.895687  -3658.627585    364.586132
PC28 -18388.638637  -9661.750609 -18631.457748   -196.856204
PC29   -846.432048  16272.971346  22644.171283    256.161627
PC30 -20302.356639  13931.369905  13145.112789    346.648556
PC32 -17210.689320   4795.814205  21449.645061   -876.276275
PC33   2666.793154 -26617.813261   7995.598492   -799.237634
PC34  19903.051408 -14093.267790 -13556.496810   -901.761497
PC35  18534.055570   9194.433465  18706.675158   -749.528562
PC36   6505.799799  22962.869922 -14421.826283   -869.503748
PC37 -21113.534231  -5340.177022 -17419.606173   -870.183583
PC38  -6502.548141  23814.036201  34184.787137     88.999481
PC39 -18907.360574  29455.946045 -23577.324870 999999.999999
PC40  -8811.562441  40537.696601  -6932.430084 999999.999999
PC43   1262.132128 -16427.424090 -22528.448132 999999.999999
PC44  27426.745220  -3348.071268   3788.713340   -324.214777
PC45  19492.586711  19853.857193   2231.831147    180.088631
PC46 -10073.544159  12730.973468 -22684.332640 999999.999999
PE01 -17697.506783 -11651.737963 -20667.375811   -898.587289
PE02  17707.005314  11542.733239  20725.878409    147.400850
PE03  20398.141385    713.576448 -21438.633552   -320.743887
PE04 -23327.761538  16594.902654   7525.597384   -566.101965
PE05   5452.903701  17850.979763 -22964.821167   -363.135963
PE07  12543.132434 -24426.800404  11083.196832   -409.120679
PE08  23139.237980 -16957.738402  -7320.955403   6149.452077
PE09 -12352.760024  24440.672152 -11202.239283   5996.222803
PE11  -5393.640863  15419.846833  24672.296837   4112.895052
PE12 -24309.253417   5145.650494  16093.555741   5705.698506
PE13   5572.437736 -15301.420276 -24719.295869    402.329476
PE14   8502.093299  12282.500502  18054.942340  -1084.741480
PE15  24129.116962  -5340.301088 -16290.719503    859.947843
PE18  -9297.583838 -18469.191313 -25132.757721  -1187.725043
PE19 -19167.908434  -2691.218854  22403.948870     28.071384
PE21 -11565.741495 -26695.424025  -5477.644584   -610.172614
PE24  -1874.996610  26317.146004 -13438.821617   5350.169228
PE25  11497.456152  26741.966773   5359.755507   -513.636460
PE26 -16568.637323 -16400.145268 -18239.681427   2958.349871
PE27   1492.168506 -26456.993366  13199.698674    177.189136
PE30  13892.193274 -10168.074869  24073.409336   3746.240573
PE31 -13597.615683  10677.818318 -24014.881754   -473.230976
PE33 -28516.124371  -7762.592497  -1711.250155   -464.912535
PE36  16250.426766  16275.578466  18629.820543    533.935099
PG01 -21646.668796 -15193.211882  -4201.365296     25.570958
PG02   3968.505846  17437.973914  20292.836635   -487.452980
PG03 -12223.417764 -16224.841112  17098.353182   -240.144539
PG04 -17838.960579  -5171.833471  19010.328620   -112.607290
PG05   1904.084090  26380.623102   -522.515619    -16.683187
PG06  -9511.679545  11594.677146  21972.791910   -303.213827
PG07 -23638.742271  -3616.574910 -11748.140703   -327.558547
PG08  -7678.417300 -12917.009183 -21886.530404    -41.001635
PG09 -23473.303980   5561.075287  11084.036698   -253.835143
PG10  11844.116528 -15544.535144 -17785.685469   -400.002370
PG11 -16428.792037 -13186.901789 -16473.470526   -220.756186
PG12  10650.577980  17321.450502  16933.087120     93.551243
PG13  -1763.672208  16515.605849 -20821.891486     26.875634
PG14  15373.618676 -17711.645198  12637.803778      1.464474
PG15  10143.514390  12474.063035 -21465.764015   -217.446867
PG16   -833.764190 -26078.198920  -3678.933563   -182.903817
PG17 -21255.366941  15199.753353   5041.220867    296.121958
PG18  23201.491043   3308.681877 -12541.536883    246.559678
PG19 -17152.014601  16590.884579  11314.849954   -131.845515
PG20  15457.856444  -3384.667397 -21404.000689    527.297146
PG21  11926.751832 -10527.139135 -20492.632979     23.849537
PG22 -10698.805949 -21888.107697  10961.489408   -771.921146
PG24  21134.769633  15137.371510  -6524.849129    -15.662404
PG25  14709.442012   6272.404825  21014.284830     23.483307
PG26   5716.977066 -23819.074372   9946.937594    243.599593
PG27   3924.775359 -17746.542035 -19390.208661   -346.189518
PG28 -12090.825084  16723.265493 -16224.077509    699.440755
PG29  22163.623654   -623.422910  14609.587096   -150.605401
PG30 -17709.879708   5739.403248 -18972.265235   -262.295197
PG31   8543.289607 -12693.711649  21675.467982    -55.683734
PG32  19983.368530 -16648.377896   5060.411442    317.210979
PJ01 -31464.955329  26179.656147  14988.676262   -235.349153
PJ02 -20151.107654  21988.813569 -25314.854225     -1.294605
PJ03 -28642.615208  28706.317492  17001.215677 999999.999999
PR01  12286.684804 -22349.002249   -831.496657     64.564548
PR02     -5.047569 -17739.044826  18348.053459    436.339114
PR03 -11071.225267  -2511.823667  22890.004310     18.566169
PR04 -15582.380521  14055.194114  14532.452217     56.333534
PR05 -11518.723656  22676.559105  -2060.878144     54.100681
PR07  11288.488897   1977.430832 -22745.929765    -38.469761
PR08  15632.106704 -14055.076775 -14382.267096    -53.470232
PR09  13639.849260  21490.630733    901.881214    143.482945
PR11  10890.710215  -3412.832081  22827.442196    -30.573649
PR12   -299.130387 -17501.891783  18578.728965    147.246035
PR13 -11908.060344 -22303.478361   3404.764033    -41.241874
PR14 -16223.334047 -13990.849330 -13847.213398     53.353825
PR15 -11228.946777   2333.950297 -22760.526661    106.934972
PR16   1073.310919  18043.314202 -18071.457183     -4.654897
PR17 -23059.899257  -4241.158229  -9995.147912    341.336118
PR18 -24326.201325   3388.884790   6989.185262     42.331593
PR19 -13218.450002   8733.365369  19982.417672   -102.409290
PR20   8093.172329   9942.606455  22044.265280   -416.770229
PR21  23542.829040   3831.740963   9073.558279   -138.202566
PR23   5787.316636 -10195.464264 -22669.005695    318.733707
PR24  -8962.335453 -10208.526898 -21576.691930      6.345019
PR26   2912.574236  10351.833458  23137.699963   -365.102868
EOF
